start=new Date('2022-05-22T00:00:00.000Z').valueOf();
sats=[{"CENTER_NAME":"EARTH","MEAN_MOTION_DOT":"0.00000433","MEAN_ELEMENT_THEORY":"SGP4","ELEMENT_SET_NO":"999","MEAN_ANOMALY":"302.7576","SITE":"AFETR","COUNTRY_CODE":"US","INCLINATION":"53.0547","REV_AT_EPOCH":"11501","DECAY_DATE":null,"PERIAPSIS":"545.958","MEAN_MOTION_DDOT":"0.0000000000000","OBJECT_TYPE":"PAYLOAD","TLE_LINE2":"2 45543  53.0547 216.6505 0001806  57.3587 302.7576 15.06401634115010","EPOCH":"2022-05-21T21:37:15.846240","RA_OF_ASC_NODE":"216.6505","BSTAR":"0.00004798100000","EPHEMERIS_TYPE":"0","ARG_OF_PERICENTER":"57.3587","LAUNCH_DATE":"2020-04-22","APOAPSIS":"548.459","FILE":"3457577","MEAN_MOTION":"15.06401634","TLE_LINE1":"1 45543U 20025N   22141.90087785  .00000433  00000-0  47981-4 0  9997","OBJECT_NAME":"STARLINK-1372","RCS_SIZE":"LARGE","REF_FRAME":"TEME","SEMIMAJOR_AXIS":"6925.344","ECCENTRICITY":"0.00018060","GP_ID":"204190364","NORAD_CAT_ID":"45543","TIME_SYSTEM":"UTC","OBJECT_ID":"2020-025N","PERIOD":"95.592","CLASSIFICATION_TYPE":"U"},{"ELEMENT_SET_NO":"999","SITE":"AFETR","MEAN_ANOMALY":"283.3175","MEAN_MOTION_DOT":"0.00005591","CENTER_NAME":"EARTH","MEAN_ELEMENT_THEORY":"SGP4","OBJECT_TYPE":"PAYLOAD","EPOCH":"2022-05-21T22:03:48.789216","RA_OF_ASC_NODE":"216.5699","TLE_LINE2":"2 45544  53.0539 216.5699 0001373  76.7967 283.3175 15.06403000115929","REV_AT_EPOCH":"11592","DECAY_DATE":null,"COUNTRY_CODE":"US","INCLINATION":"53.0539","PERIAPSIS":"546.254","MEAN_MOTION_DDOT":"0.0000000000000","APOAPSIS":"548.155","FILE":"3457577","MEAN_MOTION":"15.06403000","LAUNCH_DATE":"2020-04-22","OBJECT_NAME":"STARLINK-1373","RCS_SIZE":"LARGE","TLE_LINE1":"1 45544U 20025P   22141.91931469  .00005591  00000-0  39391-3 0  9991","ARG_OF_PERICENTER":"76.7967","BSTAR":"0.00039391000000","EPHEMERIS_TYPE":"0","CLASSIFICATION_TYPE":"U","PERIOD":"95.592","OBJECT_ID":"2020-025P","NORAD_CAT_ID":"45544","TIME_SYSTEM":"UTC","ECCENTRICITY":"0.00013730","REF_FRAME":"TEME","SEMIMAJOR_AXIS":"6925.339","GP_ID":"204190629"},{"ARG_OF_PERICENTER":"56.2170","BSTAR":"0.00199910000000","EPHEMERIS_TYPE":"0","APOAPSIS":"548.415","MEAN_MOTION":"15.06425794","FILE":"3457577","LAUNCH_DATE":"2020-04-22","RCS_SIZE":"LARGE","OBJECT_NAME":"STARLINK-1374","TLE_LINE1":"1 45545U 20025Q   22141.73870001  .00029642  00000-0  19991-2 0  9992","ECCENTRICITY":"0.00018490","REF_FRAME":"TEME","SEMIMAJOR_AXIS":"6925.270","GP_ID":"204191366","CLASSIFICATION_TYPE":"U","PERIOD":"95.591","TIME_SYSTEM":"UTC","NORAD_CAT_ID":"45545","OBJECT_ID":"2020-025Q","MEAN_MOTION_DOT":"0.00029642","CENTER_NAME":"EARTH","MEAN_ELEMENT_THEORY":"SGP4","ELEMENT_SET_NO":"999","SITE":"AFETR","MEAN_ANOMALY":"303.8995","REV_AT_EPOCH":"11587","DECAY_DATE":null,"COUNTRY_CODE":"US","INCLINATION":"53.0516","PERIAPSIS":"545.854","MEAN_MOTION_DDOT":"0.0000000000000","OBJECT_TYPE":"PAYLOAD","EPOCH":"2022-05-21T17:43:43.680864","RA_OF_ASC_NODE":"217.3639","TLE_LINE2":"2 45545  53.0516 217.3639 0001849  56.2170 303.8995 15.06425794115871"},{"OBJECT_TYPE":"PAYLOAD","TLE_LINE2":"2 45546  53.0548 218.5142 0001518  71.6003 288.5150 15.06398816115852","EPOCH":"2022-05-21T11:37:30.044928","RA_OF_ASC_NODE":"218.5142","COUNTRY_CODE":"US","INCLINATION":"53.0548","REV_AT_EPOCH":"11585","DECAY_DATE":null,"PERIAPSIS":"546.166","MEAN_MOTION_DDOT":"0.0000000000000","ELEMENT_SET_NO":"999","MEAN_ANOMALY":"288.5150","SITE":"AFETR","CENTER_NAME":"EARTH","MEAN_MOTION_DOT":"0.00003051","MEAN_ELEMENT_THEORY":"SGP4","OBJECT_ID":"2020-025R","NORAD_CAT_ID":"45546","TIME_SYSTEM":"UTC","PERIOD":"95.592","CLASSIFICATION_TYPE":"U","REF_FRAME":"TEME","SEMIMAJOR_AXIS":"6925.352","ECCENTRICITY":"0.00015180","GP_ID":"204153068","LAUNCH_DATE":"2020-04-22","APOAPSIS":"548.268","FILE":"3457102","MEAN_MOTION":"15.06398816","TLE_LINE1":"1 45546U 20025R   22141.48437552  .00003051  00000-0  22361-3 0  9997","RCS_SIZE":"LARGE","OBJECT_NAME":"STARLINK-1375","BSTAR":"0.00022361000000","EPHEMERIS_TYPE":"0","ARG_OF_PERICENTER":"71.6003"},{"PERIAPSIS":"546.113","MEAN_MOTION_DDOT":"0.0000000000000","REV_AT_EPOCH":"11589","DECAY_DATE":null,"COUNTRY_CODE":"US","INCLINATION":"53.0539","EPOCH":"2022-05-21T16:18:48.976128","RA_OF_ASC_NODE":"217.6366","TLE_LINE2":"2 45547  53.0539 217.6366 0001617  62.9081 297.2073 15.06393595115894","OBJECT_TYPE":"PAYLOAD","MEAN_ELEMENT_THEORY":"SGP4","MEAN_MOTION_DOT":"0.00000983","CENTER_NAME":"EARTH","SITE":"AFETR","MEAN_ANOMALY":"297.2073","ELEMENT_SET_NO":"999","GP_ID":"204189878","ECCENTRICITY":"0.00016170","REF_FRAME":"TEME","SEMIMAJOR_AXIS":"6925.368","CLASSIFICATION_TYPE":"U","PERIOD":"95.593","OBJECT_ID":"2020-025S","NORAD_CAT_ID":"45547","TIME_SYSTEM":"UTC","ARG_OF_PERICENTER":"62.9081","BSTAR":"0.00008489100000","EPHEMERIS_TYPE":"0","OBJECT_NAME":"STARLINK-1377","RCS_SIZE":"LARGE","TLE_LINE1":"1 45547U 20025S   22141.67973352  .00000983  00000-0  84891-4 0  9990","APOAPSIS":"548.353","MEAN_MOTION":"15.06393595","FILE":"3457577","LAUNCH_DATE":"2020-04-22"},{"ELEMENT_SET_NO":"999","MEAN_ANOMALY":"297.4608","SITE":"AFETR","CENTER_NAME":"EARTH","MEAN_MOTION_DOT":"0.00004731","MEAN_ELEMENT_THEORY":"SGP4","OBJECT_TYPE":"PAYLOAD","TLE_LINE2":"2 45548  53.0537 216.6384 0001787  62.6562 297.4608 15.06405871115911","RA_OF_ASC_NODE":"216.6384","EPOCH":"2022-05-21T21:42:34.545600","INCLINATION":"53.0537","COUNTRY_CODE":"US","DECAY_DATE":null,"REV_AT_EPOCH":"11591","MEAN_MOTION_DDOT":"0.0000000000000","PERIAPSIS":"545.958","LAUNCH_DATE":"2020-04-22","MEAN_MOTION":"15.06405871","FILE":"3457577","APOAPSIS":"548.433","TLE_LINE1":"1 45548U 20025T   22141.90456650  .00004731  00000-0  33623-3 0  9995","OBJECT_NAME":"STARLINK-1378","RCS_SIZE":"LARGE","EPHEMERIS_TYPE":"0","BSTAR":"0.00033623000000","ARG_OF_PERICENTER":"62.6562","NORAD_CAT_ID":"45548","TIME_SYSTEM":"UTC","OBJECT_ID":"2020-025T","CLASSIFICATION_TYPE":"U","PERIOD":"95.592","SEMIMAJOR_AXIS":"6925.331","REF_FRAME":"TEME","ECCENTRICITY":"0.00017870","GP_ID":"204191116"},{"GP_ID":"204190880","ECCENTRICITY":"0.00014600","REF_FRAME":"TEME","SEMIMAJOR_AXIS":"6925.298","CLASSIFICATION_TYPE":"U","PERIOD":"95.591","NORAD_CAT_ID":"45550","OBJECT_ID":"2020-025V","TIME_SYSTEM":"UTC","ARG_OF_PERICENTER":"62.8049","BSTAR":"0.00029460000000","EPHEMERIS_TYPE":"0","RCS_SIZE":"LARGE","OBJECT_NAME":"STARLINK-1390","TLE_LINE1":"1 45550U 20025V   22141.92206367  .00004111  00000-0  29460-3 0  9994","APOAPSIS":"548.174","FILE":"3457577","MEAN_MOTION":"15.06416601","LAUNCH_DATE":"2020-04-22","PERIAPSIS":"546.152","MEAN_MOTION_DDOT":"0.0000000000000","REV_AT_EPOCH":"11591","DECAY_DATE":null,"COUNTRY_CODE":"US","INCLINATION":"53.0522","EPOCH":"2022-05-21T22:07:46.301088","RA_OF_ASC_NODE":"216.5566","TLE_LINE2":"2 45550  53.0522 216.5566 0001460  62.8049 297.3089 15.06416601115914","OBJECT_TYPE":"PAYLOAD","MEAN_ELEMENT_THEORY":"SGP4","MEAN_MOTION_DOT":"0.00004111","CENTER_NAME":"EARTH","SITE":"AFETR","MEAN_ANOMALY":"297.3089","ELEMENT_SET_NO":"999"},{"MEAN_ELEMENT_THEORY":"SGP4","CENTER_NAME":"EARTH","MEAN_MOTION_DOT":"0.00002775","MEAN_ANOMALY":"295.8078","SITE":"AFETR","ELEMENT_SET_NO":"999","PERIAPSIS":"546.106","MEAN_MOTION_DDOT":"0.0000000000000","COUNTRY_CODE":"US","INCLINATION":"53.0539","REV_AT_EPOCH":"11619","DECAY_DATE":null,"TLE_LINE2":"2 45551  53.0539 196.8274 0001724  64.3088 295.8078 15.06371954116195","EPOCH":"2022-05-21T20:36:15.534432","RA_OF_ASC_NODE":"196.8274","OBJECT_TYPE":"PAYLOAD","BSTAR":"0.00020526000000","EPHEMERIS_TYPE":"0","ARG_OF_PERICENTER":"64.3088","TLE_LINE1":"1 45551U 20025W   22141.85851313  .00002775  00000-0  20526-3 0  9992","RCS_SIZE":"LARGE","OBJECT_NAME":"STARLINK-1294","LAUNCH_DATE":"2020-04-22","APOAPSIS":"548.493","FILE":"3457577","MEAN_MOTION":"15.06371954","GP_ID":"204190115","REF_FRAME":"TEME","SEMIMAJOR_AXIS":"6925.435","ECCENTRICITY":"0.00017240","TIME_SYSTEM":"UTC","NORAD_CAT_ID":"45551","OBJECT_ID":"2020-025W","PERIOD":"95.594","CLASSIFICATION_TYPE":"U"},{"TLE_LINE1":"1 45552U 20025X   22141.48272454  .00306147  00000-0  37536-2 0  9993","RCS_SIZE":"LARGE","OBJECT_NAME":"STARLINK-1322","LAUNCH_DATE":"2020-04-22","APOAPSIS":"399.652","FILE":"3457162","MEAN_MOTION":"15.58724868","BSTAR":"0.00375360000000","EPHEMERIS_TYPE":"0","ARG_OF_PERICENTER":"60.2861","OBJECT_ID":"2020-025X","NORAD_CAT_ID":"45552","TIME_SYSTEM":"UTC","CLASSIFICATION_TYPE":"U","PERIOD":"92.383","GP_ID":"204161446","REF_FRAME":"TEME","SEMIMAJOR_AXIS":"6769.483","ECCENTRICITY":"0.00122660","MEAN_ANOMALY":"299.9370","SITE":"AFETR","ELEMENT_SET_NO":"999","MEAN_ELEMENT_THEORY":"SGP4","CENTER_NAME":"EARTH","MEAN_MOTION_DOT":"0.00306147","TLE_LINE2":"2 45552  53.0445 139.5760 0012266  60.2861 299.9370 15.58724868116365","EPOCH":"2022-05-21T11:35:07.400256","RA_OF_ASC_NODE":"139.5760","OBJECT_TYPE":"PAYLOAD","PERIAPSIS":"383.045","MEAN_MOTION_DDOT":"0.0000000000000","COUNTRY_CODE":"US","INCLINATION":"53.0445","REV_AT_EPOCH":"11636","DECAY_DATE":null},{"RA_OF_ASC_NODE":"198.2689","EPOCH":"2022-05-21T12:54:28.466208","TLE_LINE2":"2 45553  53.0538 198.2689 0001830  61.7263 298.3910 15.06389792114859","OBJECT_TYPE":"PAYLOAD","MEAN_MOTION_DDOT":"0.0000000000000","PERIAPSIS":"545.977","DECAY_DATE":null,"REV_AT_EPOCH":"11485","INCLINATION":"53.0538","COUNTRY_CODE":"US","SITE":"AFETR","MEAN_ANOMALY":"298.3910","ELEMENT_SET_NO":"999","MEAN_ELEMENT_THEORY":"SGP4","MEAN_MOTION_DOT":"0.00000296","CENTER_NAME":"EARTH","PERIOD":"95.593","CLASSIFICATION_TYPE":"U","TIME_SYSTEM":"UTC","NORAD_CAT_ID":"45553","OBJECT_ID":"2020-025Y","GP_ID":"204154069","ECCENTRICITY":"0.00018300","SEMIMAJOR_AXIS":"6925.380","REF_FRAME":"TEME","OBJECT_NAME":"STARLINK-1323","RCS_SIZE":"LARGE","TLE_LINE1":"1 45553U 20025Y   22141.53782947  .00000296  00000-0  38818-4 0  9995","FILE":"3457102","MEAN_MOTION":"15.06389792","APOAPSIS":"548.512","LAUNCH_DATE":"2020-04-22","ARG_OF_PERICENTER":"61.7263","EPHEMERIS_TYPE":"0","BSTAR":"0.00003881800000"}];
